ATLAS CENTAUR R/B       
1 06155U 72065B   26082.07151329  .00001448  00000+0  20021-3 0  9997
2 06155  35.0006 227.3278 0032944 123.2785 237.1078 14.77723826843240
SL-8 R/B                
1 08459U 75112B   26082.20622307  .00000279  00000+0  10025-3 0  9990
2 08459  74.0636 354.0500 0014466  81.6255 278.6539 14.38211557633817
SL-3 R/B                
1 10114U 77057B   26082.18454594  .00015463  00000+0  31990-3 0  9994
2 10114  97.5796 254.7043 0006458 227.6159 132.4544 15.45871012670417
SEASAT 1                
1 10967U 78064A   26082.19216294  .00000268  00000+0  11340-3 0  9997
2 10967 108.0083 153.8318 0002542 279.4156  80.6702 14.46170959508463
SL-14 R/B               
1 11267U 79011B   26082.06145638  .00000681  00000+0  64668-4 0  9994
2 11267  82.5205  83.8781 0016502  18.5862 341.5956 14.91924521530773
SL-8 R/B                
1 11574U 79089B   26082.20119477  .00000177  00000+0  61613-4 0  9995
2 11574  74.0676  66.0293 0016930 237.1198 122.8329 14.42357904438052
SL-14 R/B               
1 11672U 80005B   26082.01617390  .00000603  00000+0  58316-4 0  9990
2 11672  82.5119 294.5931 0017071 116.5828 243.7143 14.90945002478473
SL-8 R/B                
1 12139U 81003B   26081.97877317  .00023695  00000+0  59800-3 0  9993
2 12139  82.9351 277.7302 0261297 132.3348 230.0346 15.11536823316682
SL-3 R/B                
1 12465U 81046B   26082.21555551  .00013751  00000+0  31645-3 0  9992
2 12465  81.2285 273.4952 0018503 334.7957  25.2381 15.42320131440510
SL-3 R/B                
1 12904U 81103B   26082.25449975  .00007083  00000+0  31275-3 0  9990
2 12904  81.1609 197.5198 0012564 237.6477 122.3539 15.21536484975293
SL-3 R/B                
1 13068U 82013B   26082.19132132  .00005506  00000+0  23733-3 0  9998
2 13068  81.1741 144.9462 0023390 132.7229 227.5977 15.22137972406407
SL-3 R/B                
1 13154U 82039B   26082.24014692  .00003436  00000+0  20720-3 0  9991
2 13154  81.1577 200.3382 0029008 279.8917  79.9034 15.10155136383683
